NORAD_CAT_ID,OBJECT_NAME,OBJECT_TYPE,EPOCH,MEAN_MOTION,ECCENTRICITY,INCLINATION,RA_OF_ASC_NODE,ARG_OF_PERICENTER,MEAN_ANOMALY,BSTAR,MEAN_MOTION_DOT,MEAN_MOTION_DDOT,TLE_LINE0,TLE_LINE1,TLE_LINE2,SEMIMAJOR_AXIS,PERIOD,APOGEE,PERIGEE,DECAYED
55774.0,STARLINK-5812,PAYLOAD,2024-04-28 19:15:35,14.98339152,0.0003213,69.9984,138.6532,267.7213,92.3578,-0.00028465,-3.489e-05,0.0,0 STARLINK-5812,1 55774U 23028AK  24119.80248948 -.00003489  00000-0 -28465-3 0  9997,2 55774  69.9984 138.6532 0003213 267.7213  92.3578 14.98339152 64694,6950.165,96.106,574.263,569.797,0.0
55774.0,STARLINK-5812,PAYLOAD,2024-04-29 04:52:23,14.98325106,0.000317,69.9982,137.643,266.948,93.1316,2.2858e-05,1.8e-06,0.0,0 STARLINK-5812,1 55774U 23028AK  24120.20305232  .00000180  00000-0  22858-4 0  9997,2 55774  69.9982 137.6430 0003170 266.9480  93.1316 14.98325106 64757,6950.208,96.107,574.276,569.87,0.0
55774.0,STARLINK-5812,PAYLOAD,2024-04-29 11:16:55,14.9832575,0.0003167,69.9983,136.9698,267.0291,93.0506,2.8814e-05,2.51e-06,0.0,0 STARLINK-5812,1 55774U 23028AK  24120.47009259  .00000251  00000-0  28814-4 0  9993,2 55774  69.9983 136.9698 0003167 267.0291  93.0506 14.98325750 64793,6950.206,96.107,574.272,569.87,0.0
55774.0,STARLINK-5812,PAYLOAD,2024-04-30 04:54:24,14.98327967,0.0003168,69.9982,135.1181,267.2014,92.8783,7.5218e-05,8.05e-06,0.0,0 STARLINK-5812,1 55774U 23028AK  24121.20445126  .00000805  00000-0  75218-4 0  9997,2 55774  69.9982 135.1181 0003168 267.2014  92.8783 14.98327967 64905,6950.199,96.107,574.266,569.862,0.0
55774.0,STARLINK-5812,PAYLOAD,2024-04-30 11:18:56,14.98328604,0.000316,69.9982,134.4448,267.2557,92.824,7.6141e-05,8.16e-06,0.0,0 STARLINK-5812,1 55774U 23028AK  24121.47149109  .00000816  00000-0  76141-4 0  9996,2 55774  69.9982 134.4448 0003160 267.2557  92.8240 14.98328604 64948,6950.197,96.107,574.258,569.866,0.0
55774.0,STARLINK-5812,PAYLOAD,2024-04-30 17:43:29,14.98329426,0.0003167,69.9982,133.7714,267.2319,92.8478,5.2327e-05,5.31e-06,0.0,0 STARLINK-5812,1 55774U 23028AK  24121.73853121  .00000531  00000-0  52327-4 0  9995,2 55774  69.9982 133.7714 0003167 267.2319  92.8478 14.98329426 64989,6950.195,96.107,574.261,569.859,0.0
55774.0,STARLINK-5812,PAYLOAD,2024-05-01 04:56:25,14.98330949,0.0003157,69.9982,132.5932,266.9569,93.1229,3.4029e-05,3.13e-06,0.0,0 STARLINK-5812,1 55774U 23028AK  24122.20585049  .00000313  00000-0  34029-4 0  9996,2 55774  69.9982 132.5932 0003157 266.9569  93.1229 14.98330949 65059,6950.19,96.107,574.249,569.861,0.0
55774.0,STARLINK-5812,PAYLOAD,2024-05-01 06:32:33,14.98331165,0.0003157,69.9982,132.4249,266.9509,93.1288,3.5714e-05,3.33e-06,0.0,0 STARLINK-5812,1 55774U 23028AK  24122.27261024  .00000333  00000-0  35714-4 0  9991,2 55774  69.9982 132.4249 0003157 266.9509  93.1288 14.98331165 65060,6950.189,96.107,574.248,569.86,0.0
55774.0,STARLINK-5812,PAYLOAD,2024-05-01 17:45:29,14.98332809,0.0003156,69.9982,131.2464,267.6551,92.4247,2.8406e-05,2.46e-06,0.0,0 STARLINK-5812,1 55774U 23028AK  24122.73992848  .00000246  00000-0  28406-4 0  9990,2 55774  69.9982 131.2464 0003156 267.6551  92.4247 14.98332809 65131,6950.184,96.107,574.243,569.856,0.0
55774.0,STARLINK-5812,PAYLOAD,2024-05-02 04:58:26,14.98333959,0.0003152,69.9981,130.0682,267.5944,92.4854,3.3373e-06,-5.3e-07,0.0,0 STARLINK-5812,1 55774U 23028AK  24123.20724723 -.00000053  00000-0  33373-5 0  9995,2 55774  69.9981 130.0682 0003152 267.5944  92.4854 14.98333959 65209,6950.181,96.107,574.236,569.855,0.0
55774.0,STARLINK-5812,PAYLOAD,2024-05-02 09:46:50,14.98334362,0.0003142,69.9981,129.5631,267.7523,92.3276,8.3114e-06,6e-08,0.0,0 STARLINK-5812,1 55774U 23028AK  24123.40752625  .00000006  00000-0  83114-5 0  9994,2 55774  69.9981 129.5631 0003142 267.7523  92.3276 14.98334362 65239,6950.179,96.107,574.228,569.861,0.0
55774.0,STARLINK-5812,PAYLOAD,2024-05-03 05:00:26,14.98332314,0.0003163,69.9979,127.543,268.1991,91.8806,-7.8934e-06,-1.87e-06,0.0,0 STARLINK-5812,1 55774U 23028AK  24124.20864582 -.00000187  00000-0 -78934-5 0  9995,2 55774  69.9979 127.5430 0003163 268.1991  91.8806 14.98332314 65359,6950.186,96.107,574.249,569.852,0.0
55774.0,STARLINK-5812,PAYLOAD,2024-05-03 09:48:51,14.98334127,0.0003154,69.998,127.0381,268.398,91.6817,4.4557e-06,-4e-07,0.0,0 STARLINK-5812,1 55774U 23028AK  24124.40892379 -.00000040  00000-0  44557-5 0  9993,2 55774  69.9980 127.0381 0003154 268.3980  91.6817 14.98334127 65388,6950.18,96.107,574.237,569.853,0.0
55774.0,STARLINK-5812,PAYLOAD,2024-05-03 17:49:31,14.98330425,0.0003151,69.9979,126.1962,268.6244,91.4554,-3.741e-05,-5.39e-06,0.0,0 STARLINK-5812,1 55774U 23028AK  24124.74272650 -.00000539  00000-0 -37410-4 0  9997,2 55774  69.9979 126.1962 0003151 268.6244  91.4554 14.98330425 65433,6950.192,96.107,574.247,569.867,0.0
55774.0,STARLINK-5812,PAYLOAD,2024-05-04 05:02:28,14.98326776,0.0003125,69.998,125.0181,268.3884,91.6917,-7.453e-05,-9.82e-06,0.0,0 STARLINK-5812,1 55774U 23028AK  24125.21005015 -.00000982  00000-0 -74530-4 0  9995,2 55774  69.9980 125.0181 0003125 268.3884  91.6917 14.98326776 65501,6950.203,96.107,574.24,569.896,0.0
55774.0,STARLINK-5812,PAYLOAD,2024-05-05 05:04:29,14.98327767,0.0003111,69.9982,122.4932,269.1735,90.9068,-3.1059e-05,-4.64e-06,0.0,0 STARLINK-5812,1 55774U 23028AK  24126.21145003 -.00000464  00000-0 -31059-4 0  9992,2 55774  69.9982 122.4932 0003111 269.1735  90.9068 14.98327767 65653,6950.2,96.107,574.227,569.903,0.0
55774.0,STARLINK-5812,PAYLOAD,2024-05-05 09:52:53,14.98328541,0.0003114,69.9982,121.9882,269.3684,90.7118,-2.718e-05,-4.17e-06,0.0,0 STARLINK-5812,1 55774U 23028AK  24126.41172972 -.00000417  00000-0 -27180-4 0  9997,2 55774  69.9982 121.9882 0003114 269.3684  90.7118 14.98328541 65687,6950.197,96.107,574.227,569.898,0.0
55774.0,STARLINK-5812,PAYLOAD,2024-05-06 05:06:30,14.98327652,0.0003101,69.9983,119.9683,269.7346,90.3458,6.9096e-05,7.31e-06,0.0,0 STARLINK-5812,1 55774U 23028AK  24127.21284862  .00000731  00000-0  69096-4 0  9997,2 55774  69.9983 119.9683 0003101 269.7346  90.3458 14.98327652 65808,6950.2,96.107,574.22,569.91,0.0
55774.0,STARLINK-5812,PAYLOAD,2024-05-06 09:54:54,14.98329612,0.0003083,69.9983,119.4632,269.9254,90.1552,8.1046e-05,8.74e-06,0.0,0 STARLINK-5812,1 55774U 23028AK  24127.41312718  .00000874  00000-0  81046-4 0  9998,2 55774  69.9983 119.4632 0003083 269.9254  90.1552 14.98329612 65830,6950.194,96.107,574.202,569.916,0.0
55774.0,STARLINK-5812,PAYLOAD,2024-05-06 16:19:26,14.9833189,0.0003091,69.9983,118.7899,269.8905,90.19,8.7648e-05,9.53e-06,0.0,0 STARLINK-5812,1 55774U 23028AK  24127.68016535  .00000953  00000-0  87648-4 0  9997,2 55774  69.9983 118.7899 0003091 269.8905  90.1900 14.98331890 65870,6950.187,96.107,574.2,569.904,0.0
55774.0,STARLINK-5812,PAYLOAD,2024-05-07 05:08:30,14.98335668,0.0003093,69.9983,117.4432,269.2651,90.8154,9.2133e-05,1.007e-05,0.0,0 STARLINK-5812,1 55774U 23028AK  24128.21424124  .00001007  00000-0  92133-4 0  9990,2 55774  69.9983 117.4432 0003093 269.2651  90.8154 14.98335668 65957,6950.175,96.107,574.19,569.891,0.0
55774.0,STARLINK-5812,PAYLOAD,2024-05-07 08:20:46,14.98337404,0.0003072,69.9983,117.1066,269.0389,91.0418,0.00010554,1.167e-05,0.0,0 STARLINK-5812,1 55774U 23028AK  24128.34775910  .00001167  00000-0  10554-3 0  9999,2 55774  69.9983 117.1066 0003072 269.0389  91.0418 14.98337404 65978,6950.17,96.107,574.17,569.9,0.0
55774.0,STARLINK-5812,PAYLOAD,2024-05-07 22:45:59,14.9832931,0.000296,69.9986,115.5917,272.1476,87.9344,-4.6612e-05,-6.49e-06,0.0,0 STARLINK-5812,1 55774U 23028AK  24128.94860692 -.00000649  00000-0 -46612-4 0  9998,2 55774  69.9986 115.5917 0002960 272.1476  87.9344 14.98329310 66065,6950.195,96.107,574.117,570.003,0.0
55774.0,STARLINK-5812,PAYLOAD,2024-05-08 05:10:31,14.98329367,0.0002981,69.9987,114.9186,271.2599,88.8219,-4.6801e-05,-6.51e-06,0.0,0 STARLINK-5812,1 55774U 23028AK  24129.21564661 -.00000651  00000-0 -46801-4 0  9999,2 55774  69.9987 114.9186 0002981 271.2599  88.8219 14.98329367 66104,6950.195,96.107,574.132,569.988,0.0
55774.0,STARLINK-5812,PAYLOAD,2024-05-08 09:58:56,14.98329133,0.0002984,69.9987,114.4136,271.2501,88.8316,-4.8272e-05,-6.69e-06,0.0,0 STARLINK-5812,1 55774U 23028AK  24129.41592666 -.00000669  00000-0 -48272-4 0  9990,2 55774  69.9987 114.4136 0002984 271.2501  88.8316 14.98329133 66132,6950.196,96.107,574.135,569.987,0.0
55774.0,STARLINK-5812,PAYLOAD,2024-05-08 16:23:28,14.98330305,0.0002978,69.9987,113.7403,270.9786,89.1031,-4.0176e-05,-5.72e-06,0.0,0 STARLINK-5812,1 55774U 23028AK  24129.68296547 -.00000572  00000-0 -40176-4 0  9996,2 55774  69.9987 113.7403 0002978 270.9786  89.1031 14.98330305 66170,6950.192,96.107,574.127,569.987,0.0
55774.0,STARLINK-5812,PAYLOAD,2024-05-09 05:12:32,14.98335141,0.0002944,69.9989,112.3941,270.9787,89.1034,-4.6946e-05,-6.53e-06,0.0,0 STARLINK-5812,1 55774U 23028AK  24130.21704118 -.00000653  00000-0 -46946-4 0  9996,2 55774  69.9989 112.3941 0002944 270.9787  89.1034 14.98335141 66253,6950.177,96.107,574.088,569.996,0.0
55774.0,STARLINK-5812,PAYLOAD,2024-05-09 08:24:48,14.98334595,0.000296,69.9989,112.0573,271.0558,89.0262,-5.0824e-05,-6.99e-06,0.0,0 STARLINK-5812,1 55774U 23028AK  24130.35056125 -.00000699  00000-0 -50824-4 0  9999,2 55774  69.9989 112.0573 0002960 271.0558  89.0262 14.98334595 66273,6950.179,96.107,574.101,569.986,0.0
55774.0,STARLINK-5812,PAYLOAD,2024-05-09 22:50:00,14.98329455,0.0003015,69.9987,110.5419,270.8046,89.2767,4.9829e-05,5.02e-06,0.0,0 STARLINK-5812,1 55774U 23028AK  24130.95140043  .00000502  00000-0  49829-4 0  9992,2 55774  69.9987 110.5419 0003015 270.8046  89.2767 14.98329455 66365,6950.195,96.107,574.155,569.964,0.0
55774.0,STARLINK-5812,PAYLOAD,2024-05-10 05:14:33,14.98331388,0.0003015,69.9986,109.8683,270.0569,90.0244,5.7686e-05,5.95e-06,0.0,0 STARLINK-5812,1 55774U 23028AK  24131.21843887  .00000595  00000-0  57686-4 0  9990,2 55774  69.9986 109.8683 0003015 270.0569  90.0244 14.98331388 66403,6950.189,96.107,574.149,569.958,0.0
